NORAD_CAT_ID,OBJECT_NAME,OBJECT_TYPE,EPOCH,MEAN_MOTION,ECCENTRICITY,INCLINATION,RA_OF_ASC_NODE,ARG_OF_PERICENTER,MEAN_ANOMALY,BSTAR,MEAN_MOTION_DOT,MEAN_MOTION_DDOT,TLE_LINE0,TLE_LINE1,TLE_LINE2,SEMIMAJOR_AXIS,PERIOD,APOGEE,PERIGEE,DECAYED
55439.0,STARLINK-5634,PAYLOAD,2024-05-31 11:55:23,14.98334029,0.0002955,70.0,296.3322,267.2374,92.8447,9.5593e-05,1.048e-05,0.0,0 STARLINK-5634,1 55439U 23014BA  24152.49679795  .00001048  00000-0  95593-4 0  9994,2 55439  70.0000 296.3322 0002955 267.2374  92.8447 14.98334029 73180,6950.18,96.107,574.099,569.992,0.0
55439.0,STARLINK-5634,PAYLOAD,2024-05-31 13:31:31,14.98333624,0.0002969,69.9999,296.1639,266.9562,93.1258,8.7689e-05,9.54e-06,0.0,0 STARLINK-5634,1 55439U 23014BA  24152.56355823  .00000954  00000-0  87689-4 0  9997,2 55439  69.9999 296.1639 0002969 266.9562  93.1258 14.98333624 74133,6950.182,96.107,574.11,569.983,0.0
55439.0,STARLINK-5634,PAYLOAD,2024-05-31 19:56:03,14.98337183,0.0003124,69.9996,295.49,271.5716,88.5085,0.00010347,1.142e-05,0.0,0 STARLINK-5634,1 55439U 23014BA  24152.83059456  .00001142  00000-0  10347-3 0  9996,2 55439  69.9996 295.4900 0003124 271.5716  88.5085 14.98337183 74174,6950.171,96.107,574.207,569.864,0.0
55439.0,STARLINK-5634,PAYLOAD,2024-06-01 13:33:32,14.98330777,0.0003035,69.9998,293.6385,271.9702,88.111,1.6164e-06,-7.4e-07,0.0,0 STARLINK-5634,1 55439U 23014BA  24153.56496032 -.00000074  00000-0  16164-5 0  9991,2 55439  69.9998 293.6385 0003035 271.9702  88.1110 14.98330777 73348,6950.19,96.107,574.165,569.946,0.0
55439.0,STARLINK-5634,PAYLOAD,2024-06-01 18:21:56,14.98356313,0.0003083,70.0,293.1339,273.6363,86.4443,-0.00046018,-5.583e-05,0.0,0 STARLINK-5634,1 55439U 23014BA  24153.76523210 -.00005583  00000-0 -46018-3 0  9992,2 55439  70.0000 293.1339 0003083 273.6363  86.4443 14.98356313 73371,6950.112,96.105,574.119,569.834,0.0
55439.0,STARLINK-5634,PAYLOAD,2024-06-02 02:22:36,14.98350003,0.000316,69.9999,292.292,273.7523,86.3275,-0.00034456,-4.204e-05,0.0,0 STARLINK-5634,1 55439U 23014BA  24154.09903355 -.00004204  00000-0 -34456-3 0  9993,2 55439  69.9999 292.2920 0003160 273.7523  86.3275 14.98350003 73424,6950.131,96.106,574.192,569.8,0.0
55439.0,STARLINK-5634,PAYLOAD,2024-06-02 11:59:25,14.98327742,0.0003002,70.0,291.2824,268.1026,91.9789,-3.9282e-07,-9.8e-07,0.0,0 STARLINK-5634,1 55439U 23014BA  24154.49960205 -.00000098  00000-0 -39282-6 0  9996,2 55439  70.0000 291.2824 0003002 268.1026  91.9789 14.98327742 73485,6950.2,96.107,574.151,569.978,0.0
55439.0,STARLINK-5634,PAYLOAD,2024-06-02 15:11:41,14.98327565,0.000296,70.0002,290.9456,267.8245,92.2575,1.7933e-05,1.21e-06,0.0,0 STARLINK-5634,1 55439U 23014BA  24154.63312193  .00000121  00000-0  17933-4 0  9991,2 55439  70.0002 290.9456 0002960 267.8245  92.2575 14.98327565 74442,6950.2,96.107,574.123,570.008,0.0
55439.0,STARLINK-5634,PAYLOAD,2024-06-03 12:01:26,14.98333888,0.0003091,69.9999,288.7574,270.8937,89.1868,0.00012452,1.393e-05,0.0,0 STARLINK-5634,1 55439U 23014BA  24155.50099587  .00001393  00000-0  12452-3 0  9999,2 55439  69.9999 288.7574 0003091 270.8937  89.1868 14.98333888 73633,6950.181,96.107,574.194,569.898,0.0
55439.0,STARLINK-5634,PAYLOAD,2024-06-03 15:13:41,14.9833715,0.000309,69.9998,288.4208,270.5197,89.5608,0.00014687,1.66e-05,0.0,0 STARLINK-5634,1 55439U 23014BA  24155.63451300  .00001660  00000-0  14687-3 0  9997,2 55439  69.9998 288.4208 0003090 270.5197  89.5608 14.98337150 74595,6950.171,96.107,574.183,569.888,0.0
55439.0,STARLINK-5634,PAYLOAD,2024-06-03 18:25:58,14.9833679,0.0003112,69.9998,288.0841,270.5211,89.5591,0.00013708,1.543e-05,0.0,0 STARLINK-5634,1 55439U 23014BA  24155.76803314  .00001543  00000-0  13708-3 0  9990,2 55439  69.9998 288.0841 0003112 270.5211  89.5591 14.98336790 74619,6950.172,96.107,574.2,569.874,0.0
55439.0,STARLINK-5634,PAYLOAD,2024-06-04 10:27:19,14.98320284,0.0003157,69.9976,286.3975,269.4911,90.5886,0.00033375,3.89e-05,0.0,0 STARLINK-5634,1 55439U 23014BA  24156.43563819  .00003890  00000-0  33375-3 0  9997,2 55439  69.9976 286.3975 0003157 269.4911  90.5886 14.98320284 73773,6950.223,96.108,574.282,569.894,0.0
55439.0,STARLINK-5634,PAYLOAD,2024-06-05 02:28:39,14.98334101,0.0003213,69.9993,284.716,271.5868,88.4923,4.4428e-05,4.37e-06,0.0,0 STARLINK-5634,1 55439U 23014BA  24157.10323508  .00000437  00000-0  44428-4 0  9997,2 55439  69.9993 284.7160 0003213 271.5868  88.4923 14.98334101 73870,6950.18,96.107,574.278,569.812,0.0
55439.0,STARLINK-5634,PAYLOAD,2024-06-05 12:05:28,14.98324829,0.0003188,69.9989,283.7065,268.4109,91.6685,-6.279e-05,-8.42e-06,0.0,0 STARLINK-5634,1 55439U 23014BA  24157.50380407 -.00000842  00000-0 -62790-4 0  9996,2 55439  69.9989 283.7065 0003188 268.4109  91.6685 14.98324829 73936,6950.209,96.107,574.29,569.858,0.0
55439.0,STARLINK-5634,PAYLOAD,2024-06-05 15:17:44,14.98328859,0.0003288,69.9995,283.3711,270.4028,89.6754,-6.4994e-05,-8.68e-06,0.0,0 STARLINK-5634,1 55439U 23014BA  24157.63732152 -.00000868  00000-0 -64994-4 0  9994,2 55439  69.9995 283.3711 0003288 270.4028  89.6754 14.98328859 74898,6950.196,96.107,574.347,569.776,0.0
55439.0,STARLINK-5634,PAYLOAD,2024-06-06 12:07:29,14.98308491,0.0003338,69.9995,281.1828,270.2116,89.8661,0.00043924,5.149e-05,0.0,0 STARLINK-5634,1 55439U 23014BA  24158.50520589  .00005149  00000-0  43924-3 0  9994,2 55439  69.9995 281.1828 0003338 270.2116  89.8661 14.98308491 74085,6950.259,96.108,574.444,569.804,0.0
55439.0,STARLINK-5634,PAYLOAD,2024-06-06 18:32:00,14.9833805,0.0002994,69.9991,280.5093,264.3491,95.7326,0.00011477,1.277e-05,0.0,0 STARLINK-5634,1 55439U 23014BA  24158.77223241  .00001277  00000-0  11477-3 0  9994,2 55439  69.9991 280.5093 0002994 264.3491  95.7326 14.98338050 74128,6950.168,96.106,574.114,569.952,0.0
55439.0,STARLINK-5634,PAYLOAD,2024-06-07 08:57:14,14.98331021,0.0002235,70.0001,278.9947,276.6222,83.4683,7.4483e-05,7.96e-06,0.0,0 STARLINK-5634,1 55439U 23014BA  24159.37308136  .00000796  00000-0  74483-4 0  9990,2 55439  70.0001 278.9947 0002235 276.6222  83.4683 14.98331021 74219,6950.19,96.107,573.608,570.501,0.0
55439.0,STARLINK-5634,PAYLOAD,2024-06-08 13:47:38,14.98338519,0.0002832,69.9996,275.9647,264.4477,95.636,0.00012609,1.412e-05,0.0,0 STARLINK-5634,1 55439U 23014BA  24160.57475160  .00001412  00000-0  12609-3 0  9993,2 55439  69.9996 275.9647 0002832 264.4477  95.6360 14.98338519 74398,6950.167,96.106,574.0,570.063,0.0
55439.0,STARLINK-5634,PAYLOAD,2024-06-08 20:12:10,14.98344237,0.0002851,69.9992,275.2908,262.5315,97.552,0.00016123,1.832e-05,0.0,0 STARLINK-5634,1 55439U 23014BA  24160.84178579  .00001832  00000-0  16123-3 0  9998,2 55439  69.9992 275.2908 0002851 262.5315  97.5520 14.98344237 75370,6950.149,96.106,573.995,570.032,0.0
55439.0,STARLINK-5634,PAYLOAD,2024-06-09 01:00:36,14.9832161,0.0002741,69.9996,274.7864,273.1219,86.9626,-5.8129e-05,-7.86e-06,0.0,0 STARLINK-5634,1 55439U 23014BA  24161.04208494 -.00000786  00000-0 -58129-4 0  9993,2 55439  69.9996 274.7864 0002741 273.1219  86.9626 14.98321610 74466,6950.219,96.108,573.989,570.179,0.0
55439.0,STARLINK-5634,PAYLOAD,2024-06-09 12:13:32,14.98320684,0.0002882,69.9998,273.6083,272.7527,87.3302,-6.5085e-05,-8.69e-06,0.0,0 STARLINK-5634,1 55439U 23014BA  24161.50940807 -.00000869  00000-0 -65085-4 0  9996,2 55439  69.9998 273.6083 0002882 272.7527  87.3302 14.98320684 75470,6950.222,96.108,574.09,570.084,0.0
55439.0,STARLINK-5634,PAYLOAD,2024-06-10 01:02:37,14.98325098,0.0002895,69.9999,272.261,273.9569,86.1259,6.1363e-06,-2e-07,0.0,0 STARLINK-5634,1 55439U 23014BA  24162.04348516 -.00000020  00000-0  61363-5 0  9999,2 55439  69.9999 272.2610 0002895 273.9569  86.1259 14.98325098 74612,6950.208,96.107,574.085,570.061,0.0
55439.0,STARLINK-5634,PAYLOAD,2024-06-10 13:51:40,14.98340938,0.0003193,70.0005,270.9136,272.6065,87.4728,0.00025554,2.958e-05,0.0,0 STARLINK-5634,1 55439U 23014BA  24162.57755410  .00002958  00000-0  25554-3 0  9993,2 55439  70.0005 270.9136 0003193 272.6065  87.4728 14.98340938 74693,6950.159,96.106,574.243,569.805,0.0
55439.0,STARLINK-5634,PAYLOAD,2024-06-10 17:03:56,14.98343659,0.0003224,70.0009,270.577,274.272,85.8071,0.0005122,6.026e-05,0.0,0 STARLINK-5634,1 55439U 23014BA  24162.71107481  .00006026  00000-0  51220-3 0  9997,2 55439  70.0009 270.5770 0003224 274.2720  85.8071 14.98343659 75651,6950.151,96.106,574.256,569.775,0.0
55439.0,STARLINK-5634,PAYLOAD,2024-06-11 13:53:41,14.98341949,0.0003032,70.0017,268.3891,275.5258,84.5555,0.00043196,5.066e-05,0.0,0 STARLINK-5634,1 55439U 23014BA  24163.57895535  .00005066  00000-0  43196-3 0  9992,2 55439  70.0017 268.3891 0003032 275.5258  84.5555 14.98341949 75783,6950.156,96.106,574.128,569.914,0.0
55439.0,STARLINK-5634,PAYLOAD,2024-06-11 17:05:57,14.98343715,0.0003166,70.0006,268.0525,274.9085,85.1712,0.00044237,5.191e-05,0.0,0 STARLINK-5634,1 55439U 23014BA  24163.71247366  .00005191  00000-0  44237-3 0  9997,2 55439  70.0006 268.0525 0003166 274.9085  85.1712 14.98343715 74864,6950.15,96.106,574.216,569.815,0.0
55439.0,STARLINK-5634,PAYLOAD,2024-06-12 12:19:34,14.98327422,0.0002939,70.0014,266.0354,270.279,89.8033,-4.6001e-05,-6.42e-06,0.0,0 STARLINK-5634,1 55439U 23014BA  24164.51359907 -.00000642  00000-0 -46001-4 0  9991,2 55439  70.0014 266.0354 0002939 270.2790  89.8033 14.98327422 74987,6950.201,96.107,574.109,570.023,0.0
55439.0,STARLINK-5634,PAYLOAD,2024-06-12 17:07:59,14.98331322,0.0003207,69.9995,265.5284,268.0894,91.9898,-1.0871e-05,-2.23e-06,0.0,0 STARLINK-5634,1 55439U 23014BA  24164.71388059 -.00000223  00000-0 -10871-4 0  9994,2 55439  69.9995 265.5284 0003207 268.0894  91.9898 14.98331322 75952,6950.189,96.107,574.283,569.825,0.0
55439.0,STARLINK-5634,PAYLOAD,2024-06-13 12:21:35,14.98336113,0.0003276,70.0002,263.5076,270.9026,89.1758,0.00016792,1.911e-05,0.0,0 STARLINK-5634,1 55439U 23014BA  24165.51499445  .00001911  00000-0  16792-3 0  9995,2 55439  70.0002 263.5076 0003276 270.9026  89.1758 14.98336113 75133,6950.174,96.107,574.316,569.762,0.0
